CCSDS_OMM_VERS = 2.0
CREATION_DATE  = 
ORIGINATOR     = 

OBJECT_NAME    = STARLINK-35701
OBJECT_ID      = 2025-299S
CENTER_NAME    = EARTH
REF_FRAME      = TEME
TIME_SYSTEM    = UTC
MEAN_ELEMENT_THEORY = SGP/SGP4

EPOCH          = 2025-12-31T06:00:02.000160
MEAN_MOTION    = 15.59314963
ECCENTRICITY   = .00017574
INCLINATION    = 42.9993
RA_OF_ASC_NODE = 203.7121
ARG_OF_PERICENTER = 266.5634
MEAN_ANOMALY   = 126.0739

EPHEMERIS_TYPE = 0
CLASSIFICATION_TYPE = U
NORAD_CAT_ID   = 67118
ELEMENT_SET_NO = 999
REV_AT_EPOCH   = 373
BSTAR          = -.27031198E-1
MEAN_MOTION_DOT = -.192945E-1
MEAN_MOTION_DDOT = 0

CCSDS_OMM_VERS = 2.0
CREATION_DATE  = 
ORIGINATOR     = 

OBJECT_NAME    = STARLINK-36179
OBJECT_ID      = 2025-299T
CENTER_NAME    = EARTH
REF_FRAME      = TEME
TIME_SYSTEM    = UTC
MEAN_ELEMENT_THEORY = SGP/SGP4

EPOCH          = 2025-12-31T06:00:02.000160
MEAN_MOTION    = 15.59349227
ECCENTRICITY   = .00017921
INCLINATION    = 42.9991
RA_OF_ASC_NODE = 203.7024
ARG_OF_PERICENTER = 264.2213
MEAN_ANOMALY   = 131.9825

EPHEMERIS_TYPE = 0
CLASSIFICATION_TYPE = U
NORAD_CAT_ID   = 67119
ELEMENT_SET_NO = 999
REV_AT_EPOCH   = 378
BSTAR          = -.26965093E-1
MEAN_MOTION_DOT = -.1927557E-1
MEAN_MOTION_DDOT = 0

CCSDS_OMM_VERS = 2.0
CREATION_DATE  = 
ORIGINATOR     = 

OBJECT_NAME    = STARLINK-36217
OBJECT_ID      = 2025-299U
CENTER_NAME    = EARTH
REF_FRAME      = TEME
TIME_SYSTEM    = UTC
MEAN_ELEMENT_THEORY = SGP/SGP4

EPOCH          = 2025-12-31T06:00:02.000160
MEAN_MOTION    = 15.59328084
ECCENTRICITY   = .00019002
INCLINATION    = 42.9993
RA_OF_ASC_NODE = 203.7080
ARG_OF_PERICENTER = 270.8572
MEAN_ANOMALY   = 123.5883

EPHEMERIS_TYPE = 0
CLASSIFICATION_TYPE = U
NORAD_CAT_ID   = 67120
ELEMENT_SET_NO = 999
REV_AT_EPOCH   = 378
BSTAR          = -.27006519E-1
MEAN_MOTION_DOT = -.1928858E-1
MEAN_MOTION_DDOT = 0

CCSDS_OMM_VERS = 2.0
CREATION_DATE  = 
ORIGINATOR     = 

OBJECT_NAME    = STARLINK-36124
OBJECT_ID      = 2025-299V
CENTER_NAME    = EARTH
REF_FRAME      = TEME
TIME_SYSTEM    = UTC
MEAN_ELEMENT_THEORY = SGP/SGP4

EPOCH          = 2025-12-31T06:00:02.000160
MEAN_MOTION    = 15.59386311
ECCENTRICITY   = .0001695
INCLINATION    = 42.9993
RA_OF_ASC_NODE = 203.6933
ARG_OF_PERICENTER = 269.9878
MEAN_ANOMALY   = 129.9446

EPHEMERIS_TYPE = 0
CLASSIFICATION_TYPE = U
NORAD_CAT_ID   = 67121
ELEMENT_SET_NO = 999
REV_AT_EPOCH   = 378
BSTAR          = -.27615446E-1
MEAN_MOTION_DOT = -.1970781E-1
MEAN_MOTION_DDOT = 0

CCSDS_OMM_VERS = 2.0
CREATION_DATE  = 
ORIGINATOR     = 

OBJECT_NAME    = STARLINK-36188
OBJECT_ID      = 2025-299W
CENTER_NAME    = EARTH
REF_FRAME      = TEME
TIME_SYSTEM    = UTC
MEAN_ELEMENT_THEORY = SGP/SGP4

EPOCH          = 2025-12-31T06:00:02.000160
MEAN_MOTION    = 15.59402606
ECCENTRICITY   = .00017521
INCLINATION    = 42.9992
RA_OF_ASC_NODE = 203.6894
ARG_OF_PERICENTER = 269.1145
MEAN_ANOMALY   = 132.6273

EPHEMERIS_TYPE = 0
CLASSIFICATION_TYPE = U
NORAD_CAT_ID   = 67122
ELEMENT_SET_NO = 999
REV_AT_EPOCH   = 378
BSTAR          = -.27681797E-1
MEAN_MOTION_DOT = -.1976066E-1
MEAN_MOTION_DDOT = 0

CCSDS_OMM_VERS = 2.0
CREATION_DATE  = 
ORIGINATOR     = 

OBJECT_NAME    = STARLINK-36151
OBJECT_ID      = 2025-299X
CENTER_NAME    = EARTH
REF_FRAME      = TEME
TIME_SYSTEM    = UTC
MEAN_ELEMENT_THEORY = SGP/SGP4

EPOCH          = 2025-12-31T06:00:02.000160
MEAN_MOTION    = 15.59355445
ECCENTRICITY   = .00018274
INCLINATION    = 42.9993
RA_OF_ASC_NODE = 203.6987
ARG_OF_PERICENTER = 267.3283
MEAN_ANOMALY   = 130.7382

EPHEMERIS_TYPE = 0
CLASSIFICATION_TYPE = U
NORAD_CAT_ID   = 67123
ELEMENT_SET_NO = 999
REV_AT_EPOCH   = 378
BSTAR          = -.26932097E-1
MEAN_MOTION_DOT = -.192591E-1
MEAN_MOTION_DDOT = 0

CCSDS_OMM_VERS = 2.0
CREATION_DATE  = 
ORIGINATOR     = 

OBJECT_NAME    = STARLINK-36195
OBJECT_ID      = 2025-299Y
CENTER_NAME    = EARTH
REF_FRAME      = TEME
TIME_SYSTEM    = UTC
MEAN_ELEMENT_THEORY = SGP/SGP4

EPOCH          = 2025-12-31T06:00:02.000160
MEAN_MOTION    = 15.59386956
ECCENTRICITY   = .00017909
INCLINATION    = 42.9993
RA_OF_ASC_NODE = 203.6848
ARG_OF_PERICENTER = 265.6554
MEAN_ANOMALY   = 137.9429

EPHEMERIS_TYPE = 0
CLASSIFICATION_TYPE = U
NORAD_CAT_ID   = 67124
ELEMENT_SET_NO = 999
REV_AT_EPOCH   = 378
BSTAR          = -.26940473E-1
MEAN_MOTION_DOT = -.1928472E-1
MEAN_MOTION_DDOT = 0

CCSDS_OMM_VERS = 2.0
CREATION_DATE  = 
ORIGINATOR     = 

OBJECT_NAME    = STARLINK-36219
OBJECT_ID      = 2025-299Z
CENTER_NAME    = EARTH
REF_FRAME      = TEME
TIME_SYSTEM    = UTC
MEAN_ELEMENT_THEORY = SGP/SGP4

EPOCH          = 2025-12-31T06:00:02.000160
MEAN_MOTION    = 15.59422859
ECCENTRICITY   = .00016446
INCLINATION    = 42.9992
RA_OF_ASC_NODE = 203.6798
ARG_OF_PERICENTER = 270.6204
MEAN_ANOMALY   = 134.7995

EPHEMERIS_TYPE = 0
CLASSIFICATION_TYPE = U
NORAD_CAT_ID   = 67125
ELEMENT_SET_NO = 999
REV_AT_EPOCH   = 378
BSTAR          = -.27647558E-1
MEAN_MOTION_DOT = -.1975195E-1
MEAN_MOTION_DDOT = 0

CCSDS_OMM_VERS = 2.0
CREATION_DATE  = 
ORIGINATOR     = 

OBJECT_NAME    = STARLINK-36223
OBJECT_ID      = 2025-299AA
CENTER_NAME    = EARTH
REF_FRAME      = TEME
TIME_SYSTEM    = UTC
MEAN_ELEMENT_THEORY = SGP/SGP4

EPOCH          = 2025-12-31T06:00:02.000160
MEAN_MOTION    = 15.59418325
ECCENTRICITY   = .00016531
INCLINATION    = 42.9991
RA_OF_ASC_NODE = 203.6747
ARG_OF_PERICENTER = 269.9969
MEAN_ANOMALY   = 137.3256

EPHEMERIS_TYPE = 0
CLASSIFICATION_TYPE = U
NORAD_CAT_ID   = 67126
ELEMENT_SET_NO = 999
REV_AT_EPOCH   = 378
BSTAR          = -.27483523E-1
MEAN_MOTION_DOT = -.1964609E-1
MEAN_MOTION_DDOT = 0

CCSDS_OMM_VERS = 2.0
CREATION_DATE  = 
ORIGINATOR     = 

OBJECT_NAME    = STARLINK-36164
OBJECT_ID      = 2025-299AB
CENTER_NAME    = EARTH
REF_FRAME      = TEME
TIME_SYSTEM    = UTC
MEAN_ELEMENT_THEORY = SGP/SGP4

EPOCH          = 2025-12-31T06:00:02.000160
MEAN_MOTION    = 15.59426023
ECCENTRICITY   = .0001595
INCLINATION    = 42.9991
RA_OF_ASC_NODE = 203.6699
ARG_OF_PERICENTER = 267.0762
MEAN_ANOMALY   = 142.1055

EPHEMERIS_TYPE = 0
CLASSIFICATION_TYPE = U
NORAD_CAT_ID   = 67127
ELEMENT_SET_NO = 999
REV_AT_EPOCH   = 378
BSTAR          = -.27495481E-1
MEAN_MOTION_DOT = -.196583E-1
MEAN_MOTION_DDOT = 0

CCSDS_OMM_VERS = 2.0
CREATION_DATE  = 
ORIGINATOR     = 

OBJECT_NAME    = STARLINK-35685
OBJECT_ID      = 2025-299AC
CENTER_NAME    = EARTH
REF_FRAME      = TEME
TIME_SYSTEM    = UTC
MEAN_ELEMENT_THEORY = SGP/SGP4

EPOCH          = 2025-12-31T06:00:02.000160
MEAN_MOTION    = 15.59393214
ECCENTRICITY   = .00017184
INCLINATION    = 42.9991
RA_OF_ASC_NODE = 203.6593
ARG_OF_PERICENTER = 267.1778
MEAN_ANOMALY   = 146.0624

EPHEMERIS_TYPE = 0
CLASSIFICATION_TYPE = U
NORAD_CAT_ID   = 67128
ELEMENT_SET_NO = 999
REV_AT_EPOCH   = 378
BSTAR          = -.27423026E-1
MEAN_MOTION_DOT = -.1959192E-1
MEAN_MOTION_DDOT = 0

CCSDS_OMM_VERS = 2.0
CREATION_DATE  = 
ORIGINATOR     = 

OBJECT_NAME    = STARLINK-36214
OBJECT_ID      = 2025-299AD
CENTER_NAME    = EARTH
REF_FRAME      = TEME
TIME_SYSTEM    = UTC
MEAN_ELEMENT_THEORY = SGP/SGP4

EPOCH          = 2025-12-31T06:00:02.000160
MEAN_MOTION    = 15.59427633
ECCENTRICITY   = .00016969
INCLINATION    = 42.9992
RA_OF_ASC_NODE = 203.6655
ARG_OF_PERICENTER = 270.9635
MEAN_ANOMALY   = 140.1439

EPHEMERIS_TYPE = 0
CLASSIFICATION_TYPE = U
NORAD_CAT_ID   = 67129
ELEMENT_SET_NO = 999
REV_AT_EPOCH   = 378
BSTAR          = -.27555062E-1
MEAN_MOTION_DOT = -.1969751E-1
MEAN_MOTION_DDOT = 0

