STARLINK-35701          
1 67118U 25299S   25365.25002315 -.01929450  00000+0 -27031-1 0  9994
2 67118  42.9993 203.7121 0001757 266.5634 126.0739 15.59314963  3736
STARLINK-36179          
1 67119U 25299T   25365.25002315 -.01927557  00000+0 -26965-1 0  9996
2 67119  42.9991 203.7024 0001792 264.2213 131.9825 15.59349227  3781
STARLINK-36217          
1 67120U 25299U   25365.25002315 -.01928858  00000+0 -27007-1 0  9991
2 67120  42.9993 203.7080 0001900 270.8572 123.5883 15.59328084  3788
STARLINK-36124          
1 67121U 25299V   25365.25002315 -.01970781  00000+0 -27615-1 0  9999
2 67121  42.9993 203.6933 0001695 269.9878 129.9446 15.59386311  3786
STARLINK-36188          
1 67122U 25299W   25365.25002315 -.01976066  00000+0 -27682-1 0  9996
2 67122  42.9992 203.6894 0001752 269.1145 132.6273 15.59402606  3780
STARLINK-36151          
1 67123U 25299X   25365.25002315 -.01925910  00000+0 -26932-1 0  9996
2 67123  42.9993 203.6987 0001827 267.3283 130.7382 15.59355445  3789
STARLINK-36195          
1 67124U 25299Y   25365.25002315 -.01928472  00000+0 -26940-1 0  9992
2 67124  42.9993 203.6848 0001790 265.6554 137.9429 15.59386956  3789
STARLINK-36219          
1 67125U 25299Z   25365.25002315 -.01975195  00000+0 -27648-1 0  9993
2 67125  42.9992 203.6798 0001644 270.6204 134.7995 15.59422859  3785
STARLINK-36223          
1 67126U 25299AA  25365.25002315 -.01964609  00000+0 -27484-1 0  9990
2 67126  42.9991 203.6747 0001653 269.9969 137.3256 15.59418325  3780
STARLINK-36164          
1 67127U 25299AB  25365.25002315 -.01965830  00000+0 -27495-1 0  9990
2 67127  42.9991 203.6699 0001595 267.0762 142.1055 15.59426023  3787
STARLINK-35685          
1 67128U 25299AC  25365.25002315 -.01959192  00000+0 -27423-1 0  9996
2 67128  42.9991 203.6593 0001718 267.1778 146.0624 15.59393214  3786
STARLINK-36214          
1 67129U 25299AD  25365.25002315 -.01969751  00000+0 -27555-1 0  9995
2 67129  42.9992 203.6655 0001696 270.9635 140.1439 15.59427633  3788
